[{"OBJECT_NAME":"ONEWEB-0500","OBJECT_ID":"2022-138F","EPOCH":"2026-03-09T17:46:05.166912","MEAN_MOTION":13.19725513,"ECCENTRICITY":0.00018002,"INCLINATION":87.923,"RA_OF_ASC_NODE":324.777,"ARG_OF_PERICENTER":78.6311,"MEAN_ANOMALY":281.5024,"EPHEMERIS_TYPE":0,"CLASSIFICATION_TYPE":"U","NORAD_CAT_ID":54118,"ELEMENT_SET_NO":999,"REV_AT_EPOCH":16371,"BSTAR":-0.00035714694,"MEAN_MOTION_DOT":-1.3e-6,"MEAN_MOTION_DDOT":0},{"OBJECT_NAME":"THOR ABLESTAR DEB","OBJECT_ID":"1961-015JG","EPOCH":"2026-03-09T18:22:09.156000","MEAN_MOTION":13.2591808,"ECCENTRICITY":0.0280494,"INCLINATION":65.7984,"RA_OF_ASC_NODE":294.4514,"ARG_OF_PERICENTER":160.7952,"MEAN_ANOMALY":277.9047,"EPHEMERIS_TYPE":0,"CLASSIFICATION_TYPE":"U","NORAD_CAT_ID":3932,"ELEMENT_SET_NO":999,"REV_AT_EPOCH":13862,"BSTAR":0.0010602204,"MEAN_MOTION_DOT":5.05e-6,"MEAN_MOTION_DDOT":0}]
